start=new Date('2022-01-03T00:00:00.000Z').valueOf();
sats=[{"REF_FRAME":"TEME","NORAD_CAT_ID":"48115","EPHEMERIS_TYPE":"0","EPOCH":"2022-01-02T16:54:37.706112","DECAY_DATE":null,"RA_OF_ASC_NODE":"176.5177","PERIOD":"95.593","SEMIMAJOR_AXIS":"6925.368","TIME_SYSTEM":"UTC","OBJECT_ID":"2021-027Z","BSTAR":"0.00007460100000","MEAN_MOTION_DOT":"0.00000829","ECCENTRICITY":"0.00025730","OBJECT_TYPE":"PAYLOAD","PERIAPSIS":"545.451","ELEMENT_SET_NO":"999","FILE":"3255249","GP_ID":"192944446","OBJECT_NAME":"STARLINK-2452","RCS_SIZE":"LARGE","CENTER_NAME":"EARTH","SITE":"AFETR","TLE_LINE1":"1 48115U 21027Z   22002.70460308  .00000829  00000-0  74601-4 0  9996","LAUNCH_DATE":"2021-04-07","MEAN_ELEMENT_THEORY":"SGP4","MEAN_ANOMALY":"266.0944","MEAN_MOTION_DDOT":"0.0000000000000","ARG_OF_PERICENTER":"94.0339","REV_AT_EPOCH":"4240","COUNTRY_CODE":"US","CLASSIFICATION_TYPE":"U","APOAPSIS":"549.014","TLE_LINE2":"2 48115  53.0552 176.5177 0002573  94.0339 266.0944 15.06393795 42409","INCLINATION":"53.0552","MEAN_MOTION":"15.06393795"},{"SITE":"AFETR","TLE_LINE1":"1 48116U 21027AA  22002.77833111  .00000592  00000-0  58662-4 0  9996","MEAN_ELEMENT_THEORY":"SGP4","MEAN_ANOMALY":"278.3849","LAUNCH_DATE":"2021-04-07","GP_ID":"192943696","FILE":"3255249","OBJECT_NAME":"STARLINK-2454","RCS_SIZE":"LARGE","CENTER_NAME":"EARTH","APOAPSIS":"548.734","TLE_LINE2":"2 48116  53.0522 186.1937 0002209  81.7390 278.3849 15.06402978 42273","INCLINATION":"53.0522","MEAN_MOTION":"15.06402978","MEAN_MOTION_DDOT":"0.0000000000000","REV_AT_EPOCH":"4227","ARG_OF_PERICENTER":"81.7390","COUNTRY_CODE":"US","CLASSIFICATION_TYPE":"U","EPOCH":"2022-01-02T18:40:47.807904","DECAY_DATE":null,"TIME_SYSTEM":"UTC","PERIOD":"95.592","RA_OF_ASC_NODE":"186.1937","SEMIMAJOR_AXIS":"6925.339","OBJECT_ID":"2021-027AA","NORAD_CAT_ID":"48116","REF_FRAME":"TEME","EPHEMERIS_TYPE":"0","PERIAPSIS":"545.675","OBJECT_TYPE":"PAYLOAD","ELEMENT_SET_NO":"999","MEAN_MOTION_DOT":"0.00000592","ECCENTRICITY":"0.00022090","BSTAR":"0.00005866200000"},{"TLE_LINE2":"2 48117  53.0555 166.6066 0002636  92.9266 267.2025 15.06398766 42548","APOAPSIS":"549.043","MEAN_MOTION":"15.06398766","INCLINATION":"53.0555","ARG_OF_PERICENTER":"92.9266","REV_AT_EPOCH":"4254","MEAN_MOTION_DDOT":"0.0000000000000","CLASSIFICATION_TYPE":"U","COUNTRY_CODE":"US","TLE_LINE1":"1 48117U 21027AB  22002.68434392  .00000944  00000-0  82267-4 0  9994","SITE":"AFETR","LAUNCH_DATE":"2021-04-07","MEAN_ANOMALY":"267.2025","MEAN_ELEMENT_THEORY":"SGP4","OBJECT_NAME":"STARLINK-2455","GP_ID":"192943946","FILE":"3255249","CENTER_NAME":"EARTH","RCS_SIZE":"LARGE","OBJECT_TYPE":"PAYLOAD","PERIAPSIS":"545.392","ELEMENT_SET_NO":"999","MEAN_MOTION_DOT":"0.00000944","BSTAR":"0.00008226700000","ECCENTRICITY":"0.00026360","DECAY_DATE":null,"EPOCH":"2022-01-02T16:25:27.314688","OBJECT_ID":"2021-027AB","PERIOD":"95.592","SEMIMAJOR_AXIS":"6925.352","RA_OF_ASC_NODE":"166.6066","TIME_SYSTEM":"UTC","EPHEMERIS_TYPE":"0","REF_FRAME":"TEME","NORAD_CAT_ID":"48117"},{"TLE_LINE1":"1 48118U 21027AC  22002.69540201  .00000723  00000-0  67462-4 0  9998","SITE":"AFETR","MEAN_ELEMENT_THEORY":"SGP4","MEAN_ANOMALY":"265.7077","LAUNCH_DATE":"2021-04-07","OBJECT_NAME":"STARLINK-2458","GP_ID":"192944197","FILE":"3255249","CENTER_NAME":"EARTH","RCS_SIZE":"LARGE","TLE_LINE2":"2 48118  53.0544 166.5522 0001957  94.4135 265.7077 15.06397035 42548","APOAPSIS":"548.578","INCLINATION":"53.0544","MEAN_MOTION":"15.06397035","REV_AT_EPOCH":"4254","ARG_OF_PERICENTER":"94.4135","MEAN_MOTION_DDOT":"0.0000000000000","CLASSIFICATION_TYPE":"U","COUNTRY_CODE":"US","DECAY_DATE":null,"EPOCH":"2022-01-02T16:41:22.733664","OBJECT_ID":"2021-027AC","TIME_SYSTEM":"UTC","SEMIMAJOR_AXIS":"6925.358","PERIOD":"95.592","RA_OF_ASC_NODE":"166.5522","EPHEMERIS_TYPE":"0","NORAD_CAT_ID":"48118","REF_FRAME":"TEME","PERIAPSIS":"545.867","OBJECT_TYPE":"PAYLOAD","ELEMENT_SET_NO":"999","ECCENTRICITY":"0.00019570","MEAN_MOTION_DOT":"0.00000723","BSTAR":"0.00006746200000"},{"ARG_OF_PERICENTER":"92.6066","REV_AT_EPOCH":"4254","MEAN_MOTION_DDOT":"0.0000000000000","CLASSIFICATION_TYPE":"U","COUNTRY_CODE":"US","TLE_LINE2":"2 48119  53.0543 166.2688 0002076  92.6066 267.5161 15.06391095 42548","APOAPSIS":"548.679","INCLINATION":"53.0543","MEAN_MOTION":"15.06391095","OBJECT_NAME":"STARLINK-2459","FILE":"3255249","GP_ID":"192944947","CENTER_NAME":"EARTH","RCS_SIZE":"LARGE","TLE_LINE1":"1 48119U 21027AD  22002.75806589  .00000839  00000-0  75217-4 0  9995","SITE":"AFETR","LAUNCH_DATE":"2021-04-07","MEAN_ANOMALY":"267.5161","MEAN_ELEMENT_THEORY":"SGP4","BSTAR":"0.00007521700000","MEAN_MOTION_DOT":"0.00000839","ECCENTRICITY":"0.00020760","OBJECT_TYPE":"PAYLOAD","PERIAPSIS":"545.803","ELEMENT_SET_NO":"999","EPHEMERIS_TYPE":"0","REF_FRAME":"TEME","NORAD_CAT_ID":"48119","DECAY_DATE":null,"EPOCH":"2022-01-02T18:11:36.892896","OBJECT_ID":"2021-027AD","PERIOD":"95.593","SEMIMAJOR_AXIS":"6925.376","RA_OF_ASC_NODE":"166.2688","TIME_SYSTEM":"UTC"},{"RCS_SIZE":"LARGE","CENTER_NAME":"EARTH","GP_ID":"192943196","FILE":"3255249","OBJECT_NAME":"STARLINK-2460","MEAN_ANOMALY":"272.0477","MEAN_ELEMENT_THEORY":"SGP4","LAUNCH_DATE":"2021-04-07","SITE":"AFETR","TLE_LINE1":"1 48120U 21027AE  22002.69724218  .00001285  00000-0  10513-3 0  9991","COUNTRY_CODE":"US","CLASSIFICATION_TYPE":"U","MEAN_MOTION_DDOT":"0.0000000000000","REV_AT_EPOCH":"4227","ARG_OF_PERICENTER":"88.0772","INCLINATION":"53.0552","MEAN_MOTION":"15.06401951","APOAPSIS":"548.781","TLE_LINE2":"2 48120  53.0552 186.5561 0002272  88.0772 272.0477 15.06401951 42270","NORAD_CAT_ID":"48120","REF_FRAME":"TEME","EPHEMERIS_TYPE":"0","TIME_SYSTEM":"UTC","PERIOD":"95.592","RA_OF_ASC_NODE":"186.5561","SEMIMAJOR_AXIS":"6925.343","OBJECT_ID":"2021-027AE","EPOCH":"2022-01-02T16:44:01.724352","DECAY_DATE":null,"ECCENTRICITY":"0.00022720","MEAN_MOTION_DOT":"0.00001285","BSTAR":"0.00010513000000","ELEMENT_SET_NO":"999","PERIAPSIS":"545.634","OBJECT_TYPE":"PAYLOAD"},{"FILE":"3255249","GP_ID":"192943446","OBJECT_NAME":"STARLINK-2462","RCS_SIZE":"LARGE","CENTER_NAME":"EARTH","SITE":"AFETR","TLE_LINE1":"1 48121U 21027AF  22002.86773470  .00000616  00000-0  60296-4 0  9996","MEAN_ANOMALY":"268.2832","MEAN_ELEMENT_THEORY":"SGP4","LAUNCH_DATE":"2021-04-07","MEAN_MOTION_DDOT":"0.0000000000000","REV_AT_EPOCH":"4242","ARG_OF_PERICENTER":"91.8430","COUNTRY_CODE":"US","CLASSIFICATION_TYPE":"U","APOAPSIS":"548.891","TLE_LINE2":"2 48121  53.0552 175.7903 0002380  91.8430 268.2832 15.06390444 42427","INCLINATION":"53.0552","MEAN_MOTION":"15.06390444","NORAD_CAT_ID":"48121","REF_FRAME":"TEME","EPHEMERIS_TYPE":"0","EPOCH":"2022-01-02T20:49:32.278080","DECAY_DATE":null,"TIME_SYSTEM":"UTC","PERIOD":"95.593","RA_OF_ASC_NODE":"175.7903","SEMIMAJOR_AXIS":"6925.378","OBJECT_ID":"2021-027AF","ECCENTRICITY":"0.00023800","MEAN_MOTION_DOT":"0.00000616","BSTAR":"0.00006029600000","PERIAPSIS":"545.595","OBJECT_TYPE":"PAYLOAD","ELEMENT_SET_NO":"999"},{"INCLINATION":"53.0548","MEAN_MOTION":"15.06390405","TLE_LINE2":"2 48122  53.0548 170.7793 0001800  82.9375 277.1819 15.06390405 42500","APOAPSIS":"548.490","CLASSIFICATION_TYPE":"U","COUNTRY_CODE":"US","ARG_OF_PERICENTER":"82.9375","REV_AT_EPOCH":"4250","MEAN_MOTION_DDOT":"0.0000000000000","LAUNCH_DATE":"2021-04-07","MEAN_ANOMALY":"277.1819","MEAN_ELEMENT_THEORY":"SGP4","TLE_LINE1":"1 48122U 21027AG  22002.86907491  .00000162  00000-0  29794-4 0  9993","SITE":"AFETR","CENTER_NAME":"EARTH","RCS_SIZE":"LARGE","OBJECT_NAME":"STARLINK-2463","FILE":"3255249","GP_ID":"192944698","ELEMENT_SET_NO":"999","PERIAPSIS":"545.996","OBJECT_TYPE":"PAYLOAD","MEAN_MOTION_DOT":"0.00000162","BSTAR":"0.00002979400000","ECCENTRICITY":"0.00018000","OBJECT_ID":"2021-027AG","SEMIMAJOR_AXIS":"6925.378","PERIOD":"95.593","RA_OF_ASC_NODE":"170.7793","TIME_SYSTEM":"UTC","DECAY_DATE":null,"EPOCH":"2022-01-02T20:51:28.072224","EPHEMERIS_TYPE":"0","REF_FRAME":"TEME","NORAD_CAT_ID":"48122"},{"INCLINATION":"53.0546","MEAN_MOTION":"15.06401991","APOAPSIS":"548.929","TLE_LINE2":"2 48123  53.0546 166.3378 0002486  93.9837 266.1437 15.06401991 42557","COUNTRY_CODE":"US","CLASSIFICATION_TYPE":"U","MEAN_MOTION_DDOT":"0.0000000000000","REV_AT_EPOCH":"4255","ARG_OF_PERICENTER":"93.9837","MEAN_ANOMALY":"266.1437","MEAN_ELEMENT_THEORY":"SGP4","LAUNCH_DATE":"2021-04-07","SITE":"AFETR","TLE_LINE1":"1 48123U 21027AH  22002.74333129  .00000759  00000-0  69874-4 0  9997","RCS_SIZE":"LARGE","CENTER_NAME":"EARTH","GP_ID":"192944447","FILE":"3255249","OBJECT_NAME":"STARLINK-2464","ELEMENT_SET_NO":"999","OBJECT_TYPE":"PAYLOAD","PERIAPSIS":"545.486","ECCENTRICITY":"0.00024860","MEAN_MOTION_DOT":"0.00000759","BSTAR":"0.00006987400000","TIME_SYSTEM":"UTC","PERIOD":"95.592","RA_OF_ASC_NODE":"166.3378","SEMIMAJOR_AXIS":"6925.342","OBJECT_ID":"2021-027AH","EPOCH":"2022-01-02T17:50:23.823456","DECAY_DATE":null,"NORAD_CAT_ID":"48123","REF_FRAME":"TEME","EPHEMERIS_TYPE":"0"},{"ARG_OF_PERICENTER":"86.2509","REV_AT_EPOCH":"4242","MEAN_MOTION_DDOT":"0.0000000000000","CLASSIFICATION_TYPE":"U","COUNTRY_CODE":"US","TLE_LINE2":"2 48124  53.0556 175.7661 0002198  86.2509 273.8731 15.06397648 42420","APOAPSIS":"548.743","INCLINATION":"53.0556","MEAN_MOTION":"15.06397648","OBJECT_NAME":"STARLINK-2465","GP_ID":"192943697","FILE":"3255249","CENTER_NAME":"EARTH","RCS_SIZE":"LARGE","TLE_LINE1":"1 48124U 21027AJ  22002.87509460  .00000706  00000-0  66313-4 0  9992","SITE":"AFETR","LAUNCH_DATE":"2021-04-07","MEAN_ANOMALY":"273.8731","MEAN_ELEMENT_THEORY":"SGP4","MEAN_MOTION_DOT":"0.00000706","ECCENTRICITY":"0.00021980","BSTAR":"0.00006631300000","OBJECT_TYPE":"PAYLOAD","PERIAPSIS":"545.699","ELEMENT_SET_NO":"999","EPHEMERIS_TYPE":"0","REF_FRAME":"TEME","NORAD_CAT_ID":"48124","DECAY_DATE":null,"EPOCH":"2022-01-02T21:00:08.173440","OBJECT_ID":"2021-027AJ","PERIOD":"95.592","RA_OF_ASC_NODE":"175.7661","SEMIMAJOR_AXIS":"6925.356","TIME_SYSTEM":"UTC"}];
